[{"OBJECT_NAME":"NUSAT-48 (HENRIETTA LEAVITT)","OBJECT_ID":"2024-149AG","EPOCH":"2026-03-09T19:19:17.269536","MEAN_MOTION":15.29812597,"ECCENTRICITY":0.00027538,"INCLINATION":97.3923,"RA_OF_ASC_NODE":150.8264,"ARG_OF_PERICENTER":263.3026,"MEAN_ANOMALY":96.7901,"EPHEMERIS_TYPE":0,"CLASSIFICATION_TYPE":"U","NORAD_CAT_ID":60498,"ELEMENT_SET_NO":999,"REV_AT_EPOCH":8694,"BSTAR":0.00045211745,"MEAN_MOTION_DOT":0.00012988,"MEAN_MOTION_DDOT":0},{"OBJECT_NAME":"STARLINK-35681","OBJECT_ID":"2025-257R","EPOCH":"2026-03-09T20:59:54.384000","MEAN_MOTION":15.30207482,"ECCENTRICITY":0.00010462,"INCLINATION":53.1594,"RA_OF_ASC_NODE":216.0335,"ARG_OF_PERICENTER":69.6363,"MEAN_ANOMALY":290.475,"EPHEMERIS_TYPE":0,"CLASSIFICATION_TYPE":"U","NORAD_CAT_ID":66395,"ELEMENT_SET_NO":999,"REV_AT_EPOCH":1968,"BSTAR":0.0010242076,"MEAN_MOTION_DOT":0.00030105,"MEAN_MOTION_DDOT":0}]
